STARLINK-2436           
1 48101U 21027K   26189.64058946  .00003241  00000+0  11612-3 0  9997
2 48101  53.1604 312.3061 0000950  95.6722 264.4388 15.31712069291198
STARLINK-2439           
1 48104U 21027N   26190.75885687  .00001806  00000+0  69945-4 0  9992
2 48104  53.1613 304.8280 0001491  61.3517 298.7634 15.31709578291390
STARLINK-2440           
1 48105U 21027P   26189.51081920 -.00053540  00000+0 -17325-2 0  9990
2 48105  53.1586 259.1011 0003953 146.3399 213.7854 15.31568664291919
STARLINK-2442           
1 48106U 21027Q   26190.61402909  .00003389  00000+0  12086-3 0  9992
2 48106  53.1600 305.3818 0000810  92.2103 267.8991 15.31713837291362
STARLINK-2443           
1 48107U 21027R   26189.59833855  .00005041  00000+0  17402-3 0  9990
2 48107  53.1608 310.2340 0001222  59.5665 300.5457 15.31711456291203
STARLINK-2448           
1 48111U 21027V   26190.30161274  .00058028  00000+0  12374-2 0  9990
2 48111  53.1551 303.6867 0000517 341.7824  18.3164 15.44369076291372
STARLINK-2449           
1 48112U 21027W   26190.62239113 -.00000692  00000+0 -10530-4 0  9994
2 48112  53.1608 320.4612 0001409  48.4338 311.6784 15.31710884291160
STARLINK-2450           
1 48113U 21027X   26190.63138057  .00000028  00000+0  12653-4 0  9990
2 48113  53.1602 317.9358 0000763  71.7856 288.3229 15.31711533291187
STARLINK-2452           
1 48115U 21027Z   26190.32103719  .00001775  00000+0  68929-4 0  9992
2 48115  53.1611 309.0002 0001362  62.5809 297.5331 15.31705932291282
STARLINK-2454           
1 48116U 21027AA  26190.83335647  .00051872  00000+0  16726-2 0  9995
2 48116  53.1600 317.5505 0001253  70.3247  66.6057 15.31684008  5907
STARLINK-2455           
1 48117U 21027AB  26190.66527368  .00001072  00000+0  46294-4 0  9992
2 48117  53.1594 304.9678 0000933  88.3492 271.7616 15.31707244291372
STARLINK-2459           
1 48119U 21027AD  26190.53509191  .00001423  00000+0  57582-4 0  9996
2 48119  53.1593 305.4986 0001131  59.0488 301.0625 15.31714870291349
STARLINK-2460           
1 48120U 21027AE  26189.65060889  .00041218  00000+0  88801-3 0  9998
2 48120  53.1582 319.6204 0001571 315.3326  44.7554 15.44217523291097
STARLINK-2462           
1 48121U 21027AF  26190.61466823  .00003228  00000+0  11569-3 0  9991
2 48121  53.1586 307.6570 0001037  79.8849 280.2269 15.31713846291336
STARLINK-2464           
1 48123U 21027AH  26190.53978490  .00002397  00000+0  88965-4 0  9993
2 48123  53.1587 305.6810 0001046 103.9811 256.1307 15.31708972291353
STARLINK-2465           
1 48124U 21027AJ  26190.62400810  .00005719  00000+0  19593-3 0  9991
2 48124  53.1591 307.6379 0001178 104.8829 255.2303 15.31695641291338
STARLINK-2466           
1 48125U 21027AK  26189.62935974  .00009050  00000+0  30276-3 0  9997
2 48125  53.1596 322.8923 0001258  51.9146 308.1969 15.31730055291033
STARLINK-2467           
1 48126U 21027AL  26190.29706309  .00001251  00000+0  52053-4 0  9994
2 48126  53.1591 306.6581 0001453 106.8400 253.2761 15.31711491291324
STARLINK-2468           
1 48127U 21027AM  26190.62640497  .00001019  00000+0  44591-4 0  9997
2 48127  53.1615 318.0558 0001246  77.0744 283.0397 15.31709928291196
STARLINK-2469           
1 48128U 21027AN  26190.21333870  .00044821  00000+0  15334-2 0  9996
2 48128  53.1001 261.5783 0004399 332.4035  27.6731 15.29829503291925
STARLINK-2471           
1 48129U 21027AP  26190.63608049  .00001537  00000+0  61256-4 0  9999
2 48129  53.1589 318.1782 0000641 105.9611 254.1461 15.31709147291194
STARLINK-2472           
1 48130U 21027AQ  26190.64574931  .00001387  00000+0  56439-4 0  9994
2 48130  53.1603 320.7524 0001152  86.0946 274.0188 15.31714092291163
STARLINK-2473           
1 48131U 21027AR  26190.32542003  .00004985  00000+0  17219-3 0  9994
2 48131  53.1604 306.9154 0001135  69.7763 290.3360 15.31718560291310
STARLINK-2474           
1 48132U 21027AS  26190.65069825 -.00000371  00000+0 -19917-6 0  9994
2 48132  53.1597 320.3263 0000883  98.6263 261.4838 15.31707497291156
STARLINK-2475           
1 48133U 21027AT  26190.53817830 -.00000648  00000+0 -91103-5 0  9992
2 48133  53.1617 318.4649 0000689  71.4096 288.6980 15.31709964291186
STARLINK-2476           
1 48134U 21027AU  26190.70595031  .00001115  00000+0  47655-4 0  9998
2 48134  53.1605 317.5340 0000788  92.2574 267.8518 15.31709749291204
STARLINK-2478           
1 48135U 21027AV  26190.65537659 -.00000009  00000+0  11481-4 0  9995
2 48135  53.1576 320.4831 0000965  68.3323 291.7781 15.31710543291160
STARLINK-2479           
1 48136U 21027AW  26190.62675059  .00001540  00000+0  61363-4 0  9994
2 48136  53.1616 318.2002 0000820  64.6363 295.4723 15.31701099291190
STARLINK-2480           
1 48137U 21027AX  26190.32609496  .00002543  00000+0  93655-4 0  9997
2 48137  53.1601 309.4048 0001098  80.6037 279.5089 15.31704700291270
STARLINK-2481           
1 48138U 21027AY  26190.64137176  .00002140  00000+0  80670-4 0  9990
2 48138  53.1599 320.3484 0000875 100.8393 259.2706 15.31710980291161
