OBJECT_NAME,OBJECT_ID,EPOCH,MEAN_MOTION,ECCENTRICITY,INCLINATION,RA_OF_ASC_NODE,ARG_OF_PERICENTER,MEAN_ANOMALY,EPHEMERIS_TYPE,CLASSIFICATION_TYPE,NORAD_CAT_ID,ELEMENT_SET_NO,REV_AT_EPOCH,BSTAR,MEAN_MOTION_DOT,MEAN_MOTION_DDOT
STARLINK-2436,2021-027K,2026-07-08T15:22:26.929344,15.31712069,.00009507,53.1604,312.3061,95.6722,264.4388,0,U,48101,999,29119,.11612088E-3,.3241E-4,0
STARLINK-2439,2021-027N,2026-07-09T18:12:45.233568,15.31709578,.0001491,53.1613,304.8280,61.3517,298.7634,0,U,48104,999,29139,.69945E-4,.1806E-4,0
STARLINK-2440,2021-027P,2026-07-08T12:15:34.778880,15.31568664,.0003953,53.1586,259.1011,146.3399,213.7854,0,U,48105,999,29191,-.17324689E-2,-.5354E-3,0
STARLINK-2442,2021-027Q,2026-07-09T14:44:12.113376,15.31713837,.000081,53.1600,305.3818,92.2103,267.8991,0,U,48106,999,29136,.12086E-3,.3389E-4,0
STARLINK-2443,2021-027R,2026-07-08T14:21:36.450720,15.31711456,.00012221,53.1608,310.2340,59.5665,300.5457,0,U,48107,999,29120,.17402406E-3,.5041E-4,0
STARLINK-2448,2021-027V,2026-07-09T07:14:19.340736,15.44369076,.00005179,53.1551,303.6867,341.7824,18.3164,0,U,48111,999,29137,.12374276E-2,.58028E-3,0
STARLINK-2449,2021-027W,2026-07-09T14:56:14.593632,15.31710884,.0001409,53.1608,320.4612,48.4338,311.6784,0,U,48112,999,29116,-.1053E-4,-.692E-5,0
STARLINK-2450,2021-027X,2026-07-09T15:09:11.281248,15.31711533,.0000763,53.1602,317.9358,71.7856,288.3229,0,U,48113,999,29118,.12653E-4,.28E-6,0
STARLINK-2452,2021-027Z,2026-07-09T07:42:17.613216,15.31705932,.00013623,53.1611,309.0002,62.5809,297.5331,0,U,48115,999,29128,.68929475E-4,.1775E-4,0
STARLINK-2454,2021-027AA,2026-07-09T20:00:01.999008,15.31684008,.0001253,53.1600,317.5505,70.3247,66.6057,0,U,48116,999,590,.16726E-2,.51872E-3,0
STARLINK-2455,2021-027AB,2026-07-09T15:57:59.645952,15.31707244,.0000933,53.1594,304.9678,88.3492,271.7616,0,U,48117,999,29137,.46294E-4,.1072E-4,0
STARLINK-2459,2021-027AD,2026-07-09T12:50:31.941024,15.31714870,.0001131,53.1593,305.4986,59.0488,301.0625,0,U,48119,999,29134,.57582E-4,.1423E-4,0
STARLINK-2460,2021-027AE,2026-07-08T15:36:52.608096,15.44217523,.00015718,53.1582,319.6204,315.3326,44.7554,0,U,48120,999,29109,.8880096E-3,.41218E-3,0
STARLINK-2462,2021-027AF,2026-07-09T14:45:07.335072,15.31713846,.0001037,53.1586,307.6570,79.8849,280.2269,0,U,48121,999,29133,.11569E-3,.3228E-4,0
STARLINK-2464,2021-027AH,2026-07-09T12:57:17.415360,15.31708972,.0001046,53.1587,305.6810,103.9811,256.1307,0,U,48123,999,29135,.88965E-4,.2397E-4,0
STARLINK-2465,2021-027AJ,2026-07-09T14:58:34.299840,15.31695641,.0001178,53.1591,307.6379,104.8829,255.2303,0,U,48124,999,29133,.19593E-3,.5719E-4,0
STARLINK-2466,2021-027AK,2026-07-08T15:06:16.681536,15.31730055,.00012583,53.1596,322.8923,51.9146,308.1969,0,U,48125,999,29103,.30275698E-3,.905E-4,0
STARLINK-2467,2021-027AL,2026-07-09T07:07:46.250976,15.31711491,.00014539,53.1591,306.6581,106.8400,253.2761,0,U,48126,999,29132,.52052634E-4,.1251E-4,0
STARLINK-2468,2021-027AM,2026-07-09T15:02:01.389408,15.31709928,.0001246,53.1615,318.0558,77.0744,283.0397,0,U,48127,999,29119,.44591E-4,.1019E-4,0
STARLINK-2469,2021-027AN,2026-07-09T05:07:12.463680,15.29829503,.00043994,53.1001,261.5783,332.4035,27.6731,0,U,48128,999,29192,.15333682E-2,.44821E-3,0
STARLINK-2471,2021-027AP,2026-07-09T15:15:57.354336,15.31709147,.0000641,53.1589,318.1782,105.9611,254.1461,0,U,48129,999,29119,.61256E-4,.1537E-4,0
STARLINK-2472,2021-027AQ,2026-07-09T15:29:52.740384,15.31714092,.0001152,53.1603,320.7524,86.0946,274.0188,0,U,48130,999,29116,.56439E-4,.1387E-4,0
STARLINK-2473,2021-027AR,2026-07-09T07:48:36.290592,15.31718560,.00011352,53.1604,306.9154,69.7763,290.3360,0,U,48131,999,29131,.1721902E-3,.4985E-4,0
STARLINK-2474,2021-027AS,2026-07-09T15:37:00.328800,15.31707497,.0000883,53.1597,320.3263,98.6263,261.4838,0,U,48132,999,29115,-.19917E-6,-.371E-5,0
STARLINK-2475,2021-027AT,2026-07-09T12:54:58.605120,15.31709964,.0000689,53.1617,318.4649,71.4096,288.6980,0,U,48133,999,29118,-.91103E-5,-.648E-5,0
STARLINK-2476,2021-027AU,2026-07-09T16:56:34.106784,15.31709749,.0000788,53.1605,317.5340,92.2574,267.8518,0,U,48134,999,29120,.47655E-4,.1115E-4,0
STARLINK-2478,2021-027AV,2026-07-09T15:43:44.537376,15.31710543,.0000965,53.1576,320.4831,68.3323,291.7781,0,U,48135,999,29116,.11481E-4,-.9E-7,0
STARLINK-2479,2021-027AW,2026-07-09T15:02:31.250976,15.31701099,.000082,53.1616,318.2002,64.6363,295.4723,0,U,48136,999,29119,.61363E-4,.154E-4,0
STARLINK-2480,2021-027AX,2026-07-09T07:49:34.604544,15.31704700,.00010988,53.1601,309.4048,80.6037,279.5089,0,U,48137,999,29127,.93655453E-4,.2543E-4,0
STARLINK-2481,2021-027AY,2026-07-09T15:23:34.520064,15.31710980,.0000875,53.1599,320.3484,100.8393,259.2706,0,U,48138,999,29116,.8067E-4,.214E-4,0
